CCSDS_OMM_VERS = 2.0
CREATION_DATE  = 
ORIGINATOR     = 

OBJECT_NAME    = SHENZHOU-21 (SZ-21)
OBJECT_ID      = 2025-246A
CENTER_NAME    = EARTH
REF_FRAME      = TEME
TIME_SYSTEM    = UTC
MEAN_ELEMENT_THEORY = SGP/SGP4

EPOCH          = 2025-11-10T22:38:39.077376
MEAN_MOTION    = 15.60859823
ECCENTRICITY   = .00047056
INCLINATION    = 41.4651
RA_OF_ASC_NODE = 209.7335
ARG_OF_PERICENTER = 1.0260
MEAN_ANOMALY   = 359.0588

EPHEMERIS_TYPE = 0
CLASSIFICATION_TYPE = U
NORAD_CAT_ID   = 66263
ELEMENT_SET_NO = 999
REV_AT_EPOCH   = 25813
BSTAR          = .4154796E-3
MEAN_MOTION_DOT = .35552E-3
MEAN_MOTION_DDOT = 0

CCSDS_OMM_VERS = 2.0
CREATION_DATE  = 
ORIGINATOR     = 

OBJECT_NAME    = CZ-2F R/B
OBJECT_ID      = 2025-246B
CENTER_NAME    = EARTH
REF_FRAME      = TEME
TIME_SYSTEM    = UTC
MEAN_ELEMENT_THEORY = SGP/SGP4

EPOCH          = 2025-11-10T19:16:52.434624
MEAN_MOTION    = 16.29944316
ECCENTRICITY   = .0046794
INCLINATION    = 41.4530
RA_OF_ASC_NODE = 205.7642
ARG_OF_PERICENTER = 210.2889
MEAN_ANOMALY   = 149.5268

EPHEMERIS_TYPE = 0
CLASSIFICATION_TYPE = U
NORAD_CAT_ID   = 66264
ELEMENT_SET_NO = 999
REV_AT_EPOCH   = 164
BSTAR          = .50986081E-3
MEAN_MOTION_DOT = .3527156E-1
MEAN_MOTION_DDOT = .7795976E-5

