SHENZHOU-21 (SZ-21)     
1 66263U 25246A   25314.94350784  .00035552  00000+0  41548-3 0  9991
2 66263  41.4651 209.7335 0004705   1.0260 359.0588 15.60859823258134
CZ-2F R/B               
1 66264U 25246B   25314.80338466  .03527156  77960-5  50986-3 0  9990
2 66264  41.4530 205.7642 0046794 210.2889 149.5268 16.29944316  1640
